NORAD_CAT_ID,OBJECT_NAME,OBJECT_TYPE,EPOCH,MEAN_MOTION,ECCENTRICITY,INCLINATION,RA_OF_ASC_NODE,ARG_OF_PERICENTER,MEAN_ANOMALY,BSTAR,MEAN_MOTION_DOT,MEAN_MOTION_DDOT,TLE_LINE0,TLE_LINE1,TLE_LINE2,SEMIMAJOR_AXIS,PERIOD,APOGEE,PERIGEE,DECAYED
53928.0,STARLINK-5009,PAYLOAD,2022-10-09 12:00:00,15.73156629,8.23e-05,53.2184,181.0267,103.5421,32.5765,0.00018878,0.00025907,0.0,0 STARLINK-5009,1 53928U 22119AU  22282.50001157  .00025907  00000-0  18878-3 0  9995,2 53928  53.2184 181.0267 0000823 103.5421  32.5765 15.73156629  2720,6728.019,91.536,350.43800000000016,349.33,0.0
53928.0,STARLINK-5009,PAYLOAD,2022-10-09 14:00:01,15.73167122,8.48e-05,53.2183,180.614,106.5135,141.8243,5.6113e-05,7.252e-05,0.0,0 STARLINK-5009,1 53928U 22119AU  22282.58334491  .00007252  00000-0  56113-4 0  9991,2 53928  53.2183 180.6140 0000848 106.5135 141.8243 15.73167122  1304,6727.989000000001,91.535,350.4240000000001,349.283,0.0
53928.0,STARLINK-5009,PAYLOAD,2022-10-09 20:00:01,15.73187769,0.0001085999999999,53.2186,179.3777,101.8485,123.1576,-0.00060212,-0.00084235,0.0,0 STARLINK-5009,1 53928U 22119AU  22282.83334491 -.00084235  00000-0 -60212-3 0  9991,2 53928  53.2186 179.3777 0001086 101.8485 123.1576 15.73187769  2772,6727.93,91.534,350.526,349.064,0.0
53928.0,STARLINK-5009,PAYLOAD,2022-10-09 22:00:00,15.73180244,0.0001084,53.2185,178.9659,97.6484,239.5821,-0.00072019,-0.00100408,0.0,0 STARLINK-5009,1 53928U 22119AU  22282.91667824 -.00100408  00000-0 -72019-3 0  9998,2 53928  53.2185 178.9659 0001084  97.6484 239.5821 15.73180244  1308,6727.951,91.534,350.546,349.087,0.0
53928.0,STARLINK-5009,PAYLOAD,2022-10-10 14:00:01,15.73172598,9.23e-05,53.2177,175.6632,115.5485,39.4644,0.0015068,0.00216126,0.0,0 STARLINK-5009,1 53928U 22119AU  22283.58334491  .00216126  00000-0  15068-2 0  9996,2 53928  53.2177 175.6632 0000923 115.5485  39.4644 15.73172598  2894,6727.973000000001,91.535,350.459,349.217,0.0
53928.0,STARLINK-5009,PAYLOAD,2022-10-10 20:00:01,15.7334714,9.24e-05,53.2177,174.4228,111.8566,19.8748,-0.00079259,-0.00111089,0.0,0 STARLINK-5009,1 53928U 22119AU  22283.83334491 -.00111089  00000-0 -79259-3 0  9991,2 53928  53.2177 174.4228 0000924 111.8566  19.8748 15.73347140  2931,6727.476,91.525,349.962,348.719,0.0
53928.0,STARLINK-5009,PAYLOAD,2022-10-10 22:00:01,15.73339383,9.32e-05,53.2177,174.0099,107.2954,136.773,-0.00099632,-0.0013898,0.0,0 STARLINK-5009,1 53928U 22119AU  22283.91668981 -.00138980  00000-0 -99632-3 0  9990,2 53928  53.2177 174.0099 0000932 107.2954 136.7730 15.73339383  1302,6727.498000000001,91.525,349.99,348.736,0.0
53928.0,STARLINK-5009,PAYLOAD,2022-10-11 04:00:00,15.73198562,0.0001184,53.2171,172.7777,89.6737,131.041,0.00043066,0.00060251,0.0,0 STARLINK-5009,1 53928U 22119AU  22284.16667824  .00060251  00000-0  43066-3 0  9996,2 53928  53.2171 172.7777 0001184  89.6737 131.0410 15.73198562  2986,6727.899,91.533,350.561,348.968,0.0
53928.0,STARLINK-5009,PAYLOAD,2022-10-11 14:00:01,15.73224962,0.0001115999999999,53.2175,170.704,105.3219,316.6582,-0.0002469,-0.00035162,0.0,0 STARLINK-5009,1 53928U 22119AU  22284.58334491 -.00035162  00000-0 -24690-3 0  9990,2 53928  53.2175 170.7040 0001116 105.3219 316.6582 15.73224962  1307,6727.824000000001,91.532,350.44,348.93800000000016,0.0
53928.0,STARLINK-5009,PAYLOAD,2022-10-11 20:00:01,15.73245255,0.0001022,53.2175,169.4818,106.5428,292.0602,-0.00021717,-0.00031044,0.0,0 STARLINK-5009,1 53928U 22119AU  22284.83335648 -.00031044  00000-0 -21717-3 0  9995,2 53928  53.2175 169.4818 0001022 106.5428 292.0602 15.73245255  3092,6727.766,91.531,350.319,348.944,0.0
53928.0,STARLINK-5009,PAYLOAD,2022-10-11 22:00:00,15.73254345,9.59e-05,53.2173,169.0701,102.8337,47.9434,-0.00041811,-0.00059022,0.0,0 STARLINK-5009,1 53928U 22119AU  22284.91667824 -.00059022  00000-0 -41811-3 0  9991,2 53928  53.2173 169.0701 0000959 102.8337  47.9434 15.73254345  1305,6727.74,91.53,350.25,348.96,0.0
53928.0,STARLINK-5009,PAYLOAD,2022-10-12 12:00:00,15.73162333,9.73e-05,53.2173,166.1739,99.2713,117.2224,0.0010731,0.00152499,0.0,0 STARLINK-5009,1 53928U 22119AU  22285.50001157  .00152499  00000-0  10731-2 0  9994,2 53928  53.2173 166.1739 0000973  99.2713 117.2224 15.73162333  3199,6728.003000000002,91.535,350.522,349.213,0.0
53928.0,STARLINK-5009,PAYLOAD,2022-10-12 14:00:01,15.73172561,0.0001107999999999,53.2171,165.7598,99.2232,229.5066,0.0011102,0.00157966,0.0,0 STARLINK-5009,1 53928U 22119AU  22285.58334491  .00157966  00000-0  11102-2 0  9999,2 53928  53.2171 165.7598 0001108  99.2232 229.5066 15.73172561  1308,6727.973000000001,91.535,350.584,349.093,0.0
53928.0,STARLINK-5009,PAYLOAD,2022-10-12 20:00:01,15.73317188,0.0001338,53.2174,164.5197,93.9308,211.5014,-0.0012175,-0.00168947,0.0,0 STARLINK-5009,1 53928U 22119AU  22285.83334491 -.00168947  00000-0 -12175-2 0  9991,2 53928  53.2174 164.5197 0001338  93.9308 211.5014 15.73317188  3248,6727.561,91.526,350.326,348.526,0.0
53928.0,STARLINK-5009,PAYLOAD,2022-10-12 22:00:00,15.73233939,0.0001363,53.2175,164.1066,89.9312,327.7815,-0.00035048,-0.0004959,0.0,0 STARLINK-5009,1 53928U 22119AU  22285.91667824 -.00049590  00000-0 -35048-3 0  9996,2 53928  53.2175 164.1066 0001363  89.9312 327.7815 15.73233939  1303,6727.7980000000025,91.531,350.58,348.746,0.0
53928.0,STARLINK-5009,PAYLOAD,2022-10-13 04:00:00,15.73204087,0.0001341999999999,53.2171,162.8681,84.429,309.9985,1.0867e-05,9.06e-06,0.0,0 STARLINK-5009,1 53928U 22119AU  22286.16667824  .00000906  00000-0  10867-4 0  9993,2 53928  53.2171 162.8681 0001342  84.4290 309.9985 15.73204087  3303,6727.884,91.533,350.651,348.846,0.0
53928.0,STARLINK-5009,PAYLOAD,2022-10-13 14:00:01,15.73002662,0.0001186,53.2167,160.8081,100.7809,134.9417,0.0019401,0.00278525,0.0,0 STARLINK-5009,1 53928U 22119AU  22286.58334491  .00278525  00000-0  19401-2 0  9995,2 53928  53.2167 160.8081 0001186 100.7809 134.9417 15.73002662  1303,6728.458000000001,91.545,351.121,349.525,0.0
53928.0,STARLINK-5009,PAYLOAD,2022-10-13 22:00:00,15.73204093,0.0001293,53.2173,159.1562,94.9642,229.5659,2.1127e-06,-3.23e-06,0.0,0 STARLINK-5009,1 53928U 22119AU  22286.91667824 -.00000323  00000-0  21127-5 0  9992,2 53928  53.2173 159.1562 0001293  94.9642 229.5659 15.73204093  1304,6727.884,91.533,350.61800000000005,348.879,0.0
53928.0,STARLINK-5009,PAYLOAD,2022-10-14 06:00:00,15.73329479,0.0001181,53.2167,157.515,94.5643,318.9446,-0.0024024,-0.00326818,0.0,0 STARLINK-5009,1 53928U 22119AU  22287.25001157 -.00326818  00000-0 -24024-2 0  9998,2 53928  53.2167 157.5150 0001181  94.5643 318.9446 15.73329479  3478,6727.526,91.526,350.186,348.597,0.0
53928.0,STARLINK-5009,PAYLOAD,2022-10-14 14:00:01,15.73116748,0.0001376999999999,53.2173,155.8579,103.7398,38.701,0.00099538,0.00140938,0.0,0 STARLINK-5009,1 53928U 22119AU  22287.58334491  .00140938  00000-0  99538-3 0  9992,2 53928  53.2173 155.8579 0001377 103.7398  38.7010 15.73116748  3521,6728.1330000000025,91.538,350.9240000000001,349.071,0.0
53928.0,STARLINK-5009,PAYLOAD,2022-10-14 20:00:01,15.73203269,0.0001349,53.2174,154.6196,99.5411,19.5588,1.4325e-05,1.391e-05,0.0,0 STARLINK-5009,1 53928U 22119AU  22287.83334491  .00001391  00000-0  14325-4 0  9991,2 53928  53.2174 154.6196 0001349  99.5411  19.5588 15.73203269  3567,6727.886,91.533,350.658,348.843,0.0
53928.0,STARLINK-5009,PAYLOAD,2022-10-15 14:00:01,15.73286454,0.0001361999999999,53.2162,150.9242,110.2446,298.9802,-0.00017842,-0.00025677,0.0,0 STARLINK-5009,1 53928U 22119AU  22288.58334491 -.00025677  00000-0 -17842-3 0  9995,2 53928  53.2162 150.9242 0001362 110.2446 298.9802 15.73286454  3681,6727.649,91.528,350.43,348.597,0.0
53928.0,STARLINK-5009,PAYLOAD,2022-10-15 20:00:01,15.73437495,0.0001119,53.2166,149.6809,106.5474,279.5177,-0.0036076999999999,-0.00483771,0.0,0 STARLINK-5009,1 53928U 22119AU  22288.83335648 -.00483771  00000-0 -36077-2 0  9991,2 53928  53.2166 149.6809 0001119 106.5474 279.5177 15.73437495  3715,6727.218000000003,91.519,349.836,348.33,0.0
53928.0,STARLINK-5009,PAYLOAD,2022-10-15 22:00:01,15.73404007,0.0001155,53.2167,149.2676,105.8238,32.5127,-0.004319,-0.00572229,0.0,0 STARLINK-5009,1 53928U 22119AU  22288.91668981 -.00572229  00000-0 -43190-2 0  9990,2 53928  53.2167 149.2676 0001155 105.8238  32.5127 15.73404007  1302,6727.314,91.521,349.956,348.402,0.0
53928.0,STARLINK-5009,PAYLOAD,2022-10-16 04:00:00,15.73130692,0.0001016,53.2163,148.0395,99.5534,15.3919,5.3161e-06,1.25e-06,0.0,0 STARLINK-5009,1 53928U 22119AU  22289.16667824  .00000125  00000-0  53161-5 0  9994,2 53928  53.2163 148.0395 0001016  99.5534  15.3919 15.73130692  3774,6728.093000000003,91.537,350.641,349.274,0.0
53928.0,STARLINK-5009,PAYLOAD,2022-10-16 12:00:00,15.73110298,0.0001125,53.2162,146.3884,112.194,91.6027,0.00082045,0.00115676,0.0,0 STARLINK-5009,1 53928U 22119AU  22289.50001157  .00115676  00000-0  82045-3 0  9992,2 53928  53.2162 146.3884 0001125 112.1940  91.6027 15.73110298  3824,6728.151,91.538,350.773,349.259,0.0
53928.0,STARLINK-5009,PAYLOAD,2022-10-16 14:00:01,15.73136349,0.0001179,53.2164,145.9762,112.0088,203.9941,0.00069537,0.00097846,0.0,0 STARLINK-5009,1 53928U 22119AU  22289.58334491  .00097846  00000-0  69537-3 0  9999,2 53928  53.2164 145.9762 0001179 112.0088 203.9941 15.73136349  1306,6728.0769999999975,91.537,350.735,349.148,0.0
53928.0,STARLINK-5009,PAYLOAD,2022-10-16 22:00:00,15.73191653,0.000113,53.2162,144.329,100.132,304.771,0.00040587,0.00056706,0.0,0 STARLINK-5009,1 53928U 22119AU  22289.91667824  .00056706  00000-0  40587-3 0  9999,2 53928  53.2162 144.3290 0001130 100.1320 304.7710 15.73191653  1300,6727.919,91.534,350.5440000000001,349.024,0.0
53928.0,STARLINK-5009,PAYLOAD,2022-10-17 04:00:00,15.73265146,0.0001075999999999,53.2156,143.0906,97.7707,283.825,-0.00050383,-0.0007093,0.0,0 STARLINK-5009,1 53928U 22119AU  22290.16667824 -.00070930  00000-0 -50383-3 0  9990,2 53928  53.2156 143.0906 0001076  97.7707 283.8250 15.73265146  3927,6727.709,91.529,350.298,348.851,0.0
